%YAML 1.1
%TAG !u! tag:unity3d.com,2011:
--- !u!114 &11400000
MonoBehaviour:
  m_ObjectHideFlags: 0
  m_CorrespondingSourceObject: {fileID: 0}
  m_PrefabInstance: {fileID: 0}
  m_PrefabAsset: {fileID: 0}
  m_GameObject: {fileID: 0}
  m_Enabled: 1
  m_EditorHideFlags: 0
  m_Script: {fileID: 11500000, guid: 3c3c350472192c149822725a54cc75ed, type: 3}
  m_Name: Titan
  m_EditorClassIdentifier: 
  mass: 1.3452e+23
  diameter: 5149460
  orbit:
    semimajorAxis: 1221900000
    eccentricity: 0.029
    inclination: 0.005235987756
    lonAscNode: 1.371828792
    argPeriapsis: 1.366592804
    trueAnomaly: 0.2163970804
    meanAnomaly: 0
    anomaly: 0
    semiminorAxis: 0
    meanMotion: 0
    semiLatusRectum: 0
    timeToPeriapsis: 0
    period: 0
  material: {fileID: 2100000, guid: bc1dfaffadb63824491aee8ad632d812, type: 2}
  bodiesOnOrbit: []
  type: 2
